{"type": "FeatureCollection", "features": [{"type": "Feature", "properties": {"norad_id": 26766, "name": "INTELSAT 10 (IS-10)", "group": "intelsat", "lat": -7.930208513587548, "lon": -4.973656134024927, "alt_km": 36112.18103581186, "timestamp": "2025-12-24T11:32:59.671396+00:00", "meta": {"OBJECT_NAME": "INTELSAT 10 (IS-10)", "OBJECT_ID": "2001-019A", "EPOCH": "2025-12-23T20:29:28.496256", "MEAN_MOTION": 0.9907274, "ECCENTRICITY": 0.00078795, "INCLINATION": 8.6541, "RA_OF_ASC_NODE": 61.0445, "ARG_OF_PERICENTER": 229.3993, "MEAN_ANOMALY": 200.4709, "EPHEMERIS_TYPE": 0, "CLASSIFICATION_TYPE": "U", "NORAD_CAT_ID": 26766, "ELEMENT_SET_NO": 999, "REV_AT_EPOCH": 4384, "BSTAR": 0, "MEAN_MOTION_DOT": -1.1e-07, "MEAN_MOTION_DDOT": 0}, "tle": {"line1": "1 26766U 01019A   25357.85380204 -.00000011  00000+0  00000+0 0  9991", "line2": "2 26766   8.6541  61.0445 0007879 229.3993 200.4709  0.99072740 43840"}}, "geometry": {"type": "Point", "coordinates": [-4.973656134024927, -7.930208513587548]}}, {"type": "Feature", "properties": {"norad_id": 26900, "name": "INTELSAT 902 (IS-902)", "group": "intelsat", "lat": 3.4593631536258984, "lon": -143.58585894561463, "alt_km": 35774.01126161916, "timestamp": "2025-12-24T11:32:59.671424+00:00", "meta": {"OBJECT_NAME": "INTELSAT 902 (IS-902)", "OBJECT_ID": "2001-039A", "EPOCH": "2025-12-15T13:09:02.081664", "MEAN_MOTION": 1.0027087, "ECCENTRICITY": 0.00045028, "INCLINATION": 5.6536, "RA_OF_ASC_NODE": 74.0372, "ARG_OF_PERICENTER": 189.6359, "MEAN_ANOMALY": 327.9329, "EPHEMERIS_TYPE": 0, "CLASSIFICATION_TYPE": "U", "NORAD_CAT_ID": 26900, "ELEMENT_SET_NO": 999, "REV_AT_EPOCH": 8885, "BSTAR": 0, "MEAN_MOTION_DOT": -2.65e-06, "MEAN_MOTION_DDOT": 0}, "tle": {"line1": "1 26900U 01039A   25349.54794076 -.00000265  00000+0  00000+0 0  9997", "line2": "2 26900   5.6536  74.0372 0004502 189.6359 327.9329  1.00270870 88858"}}, "geometry": {"type": "Point", "coordinates": [-143.58585894561463, 3.4593631536258984]}}, {"type": "Feature", "properties": {"norad_id": 27380, "name": "INTELSAT 904 (IS-904)", "group": "intelsat", "lat": 1.8065393506407206, "lon": -124.90589496410476, "alt_km": 35784.26545994325, "timestamp": "2025-12-24T11:32:59.671441+00:00", "meta": {"OBJECT_NAME": "INTELSAT 904 (IS-904)", "OBJECT_ID": "2002-007A", "EPOCH": "2025-12-23T23:15:16.270848", "MEAN_MOTION": 1.00273356, "ECCENTRICITY": 0.000188, "INCLINATION": 6.4809, "RA_OF_ASC_NODE": 71.3034, "ARG_OF_PERICENTER": 245.293, "MEAN_ANOMALY": 93.4817, "EPHEMERIS_TYPE": 0, "CLASSIFICATION_TYPE": "U", "NORAD_CAT_ID": 27380, "ELEMENT_SET_NO": 999, "REV_AT_EPOCH": 5000, "BSTAR": 0, "MEAN_MOTION_DOT": -2.07e-06, "MEAN_MOTION_DDOT": 0}, "tle": {"line1": "1 27380U 02007A   25357.96893832 -.00000207  00000+0  00000+0 0  9997", "line2": "2 27380   6.4809  71.3034 0001880 245.2930  93.4817  1.00273356 50003"}}, "geometry": {"type": "Point", "coordinates": [-124.90589496410476, 1.8065393506407206]}}, {"type": "Feature", "properties": {"norad_id": 27426, "name": "DIRECTV 5 (TEMPO 1)", "group": "intelsat", "lat": 4.361590362740088, "lon": 156.31939649172568, "alt_km": 35793.14223092006, "timestamp": "2025-12-24T11:32:59.671455+00:00", "meta": {"OBJECT_NAME": "DIRECTV 5 (TEMPO 1)", "OBJECT_ID": "2002-023A", "EPOCH": "2025-12-23T16:01:57.619200", "MEAN_MOTION": 1.00271663, "ECCENTRICITY": 0.0003261, "INCLINATION": 4.4282, "RA_OF_ASC_NODE": 77.5248, "ARG_OF_PERICENTER": 202.2662, "MEAN_ANOMALY": 303.0349, "EPHEMERIS_TYPE": 0, "CLASSIFICATION_TYPE": "U", "NORAD_CAT_ID": 27426, "ELEMENT_SET_NO": 999, "REV_AT_EPOCH": 8636, "BSTAR": 0, "MEAN_MOTION_DOT": -3.8e-07, "MEAN_MOTION_DDOT": 0}, "tle": {"line1": "1 27426U 02023A   25357.66802800 -.00000038  00000+0  00000+0 0  9990", "line2": "2 27426   4.4282  77.5248 0003261 202.2662 303.0349  1.00271663 86369"}}, "geometry": {"type": "Point", "coordinates": [156.31939649172568, 4.361590362740088]}}, {"type": "Feature", "properties": {"norad_id": 27438, "name": "INTELSAT 905 (IS-905)", "group": "intelsat", "lat": 5.334214549715313, "lon": 129.13603002135577, "alt_km": 35794.85619402412, "timestamp": "2025-12-24T11:32:59.671467+00:00", "meta": {"OBJECT_NAME": "INTELSAT 905 (IS-905)", "OBJECT_ID": "2002-027A", "EPOCH": "2025-12-23T05:41:27.377952", "MEAN_MOTION": 1.00273243, "ECCENTRICITY": 0.00027491, "INCLINATION": 6.3102, "RA_OF_ASC_NODE": 71.9349, "ARG_OF_PERICENTER": 206.5226, "MEAN_ANOMALY": 121.7385, "EPHEMERIS_TYPE": 0, "CLASSIFICATION_TYPE": "U", "NORAD_CAT_ID": 27438, "ELEMENT_SET_NO": 999, "REV_AT_EPOCH": 4959, "BSTAR": 0, "MEAN_MOTION_DOT": 1.12e-06, "MEAN_MOTION_DDOT": 0}, "tle": {"line1": "1 27438U 02027A   25357.23712243  .00000112  00000+0  00000+0 0  9993", "line2": "2 27438   6.3102  71.9349 0002749 206.5226 121.7385  1.00273243 49592"}}, "geometry": {"type": "Point", "coordinates": [129.13603002135577, 5.334214549715313]}}, {"type": "Feature", "properties": {"norad_id": 27445, "name": "GALAXY 3C (G-3C)", "group": "intelsat", "lat": 3.300592736411306, "lon": 171.64923732653207, "alt_km": 35781.14545386669, "timestamp": "2025-12-24T11:32:59.671481+00:00", "meta": {"OBJECT_NAME": "GALAXY 3C (G-3C)", "OBJECT_ID": "2002-030A", "EPOCH": "2025-12-23T19:31:44.703840", "MEAN_MOTION": 1.00271484, "ECCENTRICITY": 0.000111, "INCLINATION": 3.2897, "RA_OF_ASC_NODE": 80.3883, "ARG_OF_PERICENTER": 83.376, "MEAN_ANOMALY": 126.9142, "EPHEMERIS_TYPE": 0, "CLASSIFICATION_TYPE": "U", "NORAD_CAT_ID": 27445, "ELEMENT_SET_NO": 999, "REV_AT_EPOCH": 4473, "BSTAR": 0, "MEAN_MOTION_DOT": -1.33e-06, "MEAN_MOTION_DDOT": 0}, "tle": {"line1": "1 27445U 02030A   25357.81371185 -.00000133  00000+0  00000+0 0  9999", "line2": "2 27445   3.2897  80.3883 0001110  83.3760 126.9142  1.00271484 44733"}}, "geometry": {"type": "Point", "coordinates": [171.64923732653207, 3.300592736411306]}}, {"type": "Feature", "properties": {"norad_id": 27513, "name": "INTELSAT 906 (IS-906)", "group": "intelsat", "lat": -5.208109440756869, "lon": -29.349529400999558, "alt_km": 35770.45088668363, "timestamp": "2025-12-24T11:32:59.671495+00:00", "meta": {"OBJECT_NAME": "INTELSAT 906 (IS-906)", "OBJECT_ID": "2002-041A", "EPOCH": "2025-12-23T18:34:28.015104", "MEAN_MOTION": 1.00273398, "ECCENTRICITY": 0.00062905, "INCLINATION": 5.3577, "RA_OF_ASC_NODE": 75.1001, "ARG_OF_PERICENTER": 202.0184, "MEAN_ANOMALY": 158.2022, "EPHEMERIS_TYPE": 0, "CLASSIFICATION_TYPE": "U", "NORAD_CAT_ID": 27513, "ELEMENT_SET_NO": 999, "REV_AT_EPOCH": 8527, "BSTAR": 0, "MEAN_MOTION_DOT": 3.1e-07, "MEAN_MOTION_DDOT": 0}, "tle": {"line1": "1 27513U 02041A   25357.77393536  .00000031  00000+0  00000+0 0  9992", "line2": "2 27513   5.3577  75.1001 0006290 202.0184 158.2022  1.00273398 85270"}}, "geometry": {"type": "Point", "coordinates": [-29.349529400999558, -5.208109440756869]}}, {"type": "Feature", "properties": {"norad_id": 27954, "name": "GALAXY 13 (HORIZONS-1)", "group": "intelsat", "lat": 0.5070305390303567, "lon": 116.45154649778782, "alt_km": 35794.89828435993, "timestamp": "2025-12-24T11:32:59.671521+00:00", "meta": {"OBJECT_NAME": "GALAXY 13 (HORIZONS-1)", "OBJECT_ID": "2003-044A", "EPOCH": "2025-12-23T17:33:18.870624", "MEAN_MOTION": 1.0027125, "ECCENTRICITY": 0.00023412, "INCLINATION": 0.9652, "RA_OF_ASC_NODE": 86.3258, "ARG_OF_PERICENTER": 182.915, "MEAN_ANOMALY": 296.5742, "EPHEMERIS_TYPE": 0, "CLASSIFICATION_TYPE": "U", "NORAD_CAT_ID": 27954, "ELEMENT_SET_NO": 999, "REV_AT_EPOCH": 4481, "BSTAR": 0, "MEAN_MOTION_DOT": 1.53e-06, "MEAN_MOTION_DDOT": 0}, "tle": {"line1": "1 27954U 03044A   25357.73146841  .00000153  00000+0  00000+0 0  9991", "line2": "2 27954   0.9652  86.3258 0002341 182.9150 296.5742  1.00271250 44819"}}, "geometry": {"type": "Point", "coordinates": [116.45154649778782, 0.5070305390303567]}}, {"type": "Feature", "properties": {"norad_id": 28358, "name": "INTELSAT 10-02", "group": "intelsat", "lat": -0.024846734274071643, "lon": -94.4836567812623, "alt_km": 35784.34464654284, "timestamp": "2025-12-24T11:32:59.671543+00:00", "meta": {"OBJECT_NAME": "INTELSAT 10-02", "OBJECT_ID": "2004-022A", "EPOCH": "2025-12-24T00:36:38.599200", "MEAN_MOTION": 1.00265898, "ECCENTRICITY": 0.000127, "INCLINATION": 0.015, "RA_OF_ASC_NODE": 52.7398, "ARG_OF_PERICENTER": 263.9976, "MEAN_ANOMALY": 144.2692, "EPHEMERIS_TYPE": 0, "CLASSIFICATION_TYPE": "U", "NORAD_CAT_ID": 28358, "ELEMENT_SET_NO": 999, "REV_AT_EPOCH": 7880, "BSTAR": 0, "MEAN_MOTION_DOT": 9e-08, "MEAN_MOTION_DDOT": 0}, "tle": {"line1": "1 28358U 04022A   25358.02544675  .00000009  00000+0  00000+0 0  9997", "line2": "2 28358   0.0150  52.7398 0001270 263.9976 144.2692  1.00265898 78800"}}, "geometry": {"type": "Point", "coordinates": [-94.4836567812623, -0.024846734274071643]}}, {"type": "Feature", "properties": {"norad_id": 28626, "name": "XM-3 (RHYTHM)", "group": "intelsat", "lat": -0.1959183632570088, "lon": -35.03908815085403, "alt_km": 36153.16622047232, "timestamp": "2025-12-24T11:32:59.671556+00:00", "meta": {"OBJECT_NAME": "XM-3 (RHYTHM)", "OBJECT_ID": "2005-008A", "EPOCH": "2025-12-24T02:18:38.732832", "MEAN_MOTION": 0.98949998, "ECCENTRICITY": 0.0002114, "INCLINATION": 0.2022, "RA_OF_ASC_NODE": 82.1634, "ARG_OF_PERICENTER": 274.9803, "MEAN_ANOMALY": 190.7017, "EPHEMERIS_TYPE": 0, "CLASSIFICATION_TYPE": "U", "NORAD_CAT_ID": 28626, "ELEMENT_SET_NO": 999, "REV_AT_EPOCH": 4086, "BSTAR": 0, "MEAN_MOTION_DOT": 9.9e-07, "MEAN_MOTION_DDOT": 0}, "tle": {"line1": "1 28626U 05008A   25358.09628163  .00000099  00000+0  00000+0 0  9991", "line2": "2 28626   0.2022  82.1634 0002114 274.9803 190.7017  0.98949998 40865"}}, "geometry": {"type": "Point", "coordinates": [-35.03908815085403, -0.1959183632570088]}}]}